{
  "type": "FeatureCollection",
  "features": [
    {
      "type": "Feature",
      "properties": {
        "norad_id": 67147,
        "name": "KUIPER-00221",
        "group": "last-30-days",
        "lat": -12.82094935577947,
        "lon": -116.46767832783848,
        "alt_km": 460.12720769523276,
        "timestamp": "2025-12-27T15:27:09.834679+00:00",
        "meta_object_name": "KUIPER-00221",
        "meta_object_id": "2025-301Q",
        "meta_epoch": "2025-12-27T06:47:36.673440",
        "meta_mean_motion": 15.35782669,
        "meta_eccentricity": 0.00050686,
        "meta_inclination": 51.8725,
        "meta_ra_of_asc_node": 54.9767,
        "meta_arg_of_pericenter": 116.3773,
        "meta_mean_anomaly": 243.7734,
        "meta_ephemeris_type": 0,
        "meta_classification_type": "U",
        "meta_norad_cat_id": 67147,
        "meta_element_set_no": 999,
        "meta_rev_at_epoch": 260,
        "meta_bstar": 0.00063829804,
        "meta_mean_motion_dot": 0.0002225,
        "meta_mean_motion_ddot": 0,
        "tle_line1": "1 67147U 25301Q   25361.28306335  .00022250  00000+0  63830-3 0  9996",
        "tle_line2": "2 67147  51.8725  54.9767 0005068 116.3773 243.7734 15.35782669  2600"
      },
      "geometry": {
        "type": "Point",
        "coordinates": [
          -116.46767832783848,
          -12.82094935577947
        ]
      }
    },
    {
      "type": "Feature",
      "properties": {
        "norad_id": 67148,
        "name": "KUIPER-00232",
        "group": "last-30-days",
        "lat": -41.41426162391271,
        "lon": -83.00472520912062,
        "alt_km": 461.12529888651534,
        "timestamp": "2025-12-27T15:27:09.834690+00:00",
        "meta_object_name": "KUIPER-00232",
        "meta_object_id": "2025-301R",
        "meta_epoch": "2025-12-27T06:37:16.302432",
        "meta_mean_motion": 15.36747889,
        "meta_eccentricity": 0.00016558,
        "meta_inclination": 51.8745,
        "meta_ra_of_asc_node": 54.9256,
        "meta_arg_of_pericenter": 55.0515,
        "meta_mean_anomaly": 305.0627,
        "meta_ephemeris_type": 0,
        "meta_classification_type": "U",
        "meta_norad_cat_id": 67148,
        "meta_element_set_no": 999,
        "meta_rev_at_epoch": 260,
        "meta_bstar": 0.00051752933,
        "meta_mean_motion_dot": 0.00018528,
        "meta_mean_motion_ddot": 0,
        "tle_line1": "1 67148U 25301R   25361.27588313  .00018528  00000+0  51753-3 0  9998",
        "tle_line2": "2 67148  51.8745  54.9256 0001655  55.0515 305.0627 15.36747889  2606"
      },
      "geometry": {
        "type": "Point",
        "coordinates": [
          -83.00472520912062,
          -41.41426162391271
        ]
      }
    },
    {
      "type": "Feature",
      "properties": {
        "norad_id": 67149,
        "name": "KUIPER-00241",
        "group": "last-30-days",
        "lat": -28.961640106660195,
        "lon": -101.05051059468552,
        "alt_km": 461.60143696916657,
        "timestamp": "2025-12-27T15:27:09.834700+00:00",
        "meta_object_name": "KUIPER-00241",
        "meta_object_id": "2025-301S",
        "meta_epoch": "2025-12-27T06:42:09.023040",
        "meta_mean_motion": 15.36307948,
        "meta_eccentricity": 0.00029158,
        "meta_inclination": 51.8747,
        "meta_ra_of_asc_node": 54.9473,
        "meta_arg_of_pericenter": 96.2518,
        "meta_mean_anomaly": 263.8801,
        "meta_ephemeris_type": 0,
        "meta_classification_type": "U",
        "meta_norad_cat_id": 67149,
        "meta_element_set_no": 999,
        "meta_rev_at_epoch": 293,
        "meta_bstar": 0.00093046989,
        "meta_mean_motion_dot": 0.00033211,
        "meta_mean_motion_ddot": 0,
        "tle_line1": "1 67149U 25301S   25361.27927110  .00033211  00000+0  93047-3 0  9999",
        "tle_line2": "2 67149  51.8747  54.9473 0002915  96.2518 263.8801 15.36307948  2939"
      },
      "geometry": {
        "type": "Point",
        "coordinates": [
          -101.05051059468552,
          -28.961640106660195
        ]
      }
    },
    {
      "type": "Feature",
      "properties": {
        "norad_id": 67150,
        "name": "KUIPER-00245",
        "group": "last-30-days",
        "lat": -9.876734035494412,
        "lon": -118.898264429916,
        "alt_km": 459.3839419948217,
        "timestamp": "2025-12-27T15:27:09.834711+00:00",
        "meta_object_name": "KUIPER-00245",
        "meta_object_id": "2025-301T",
        "meta_epoch": "2025-12-27T06:48:33.874560",
        "meta_mean_motion": 15.35688677,
        "meta_eccentricity": 0.00050741,
        "meta_inclination": 51.8729,
        "meta_ra_of_asc_node": 54.9797,
        "meta_arg_of_pericenter": 124.8823,
        "meta_mean_anomaly": 235.2641,
        "meta_ephemeris_type": 0,
        "meta_classification_type": "U",
        "meta_norad_cat_id": 67150,
        "meta_element_set_no": 999,
        "meta_rev_at_epoch": 260,
        "meta_bstar": 0.00064427242,
        "meta_mean_motion_dot": 0.00022394,
        "meta_mean_motion_ddot": 0,
        "tle_line1": "1 67150U 25301T   25361.28372540  .00022394  00000+0  64427-3 0  9993",
        "tle_line2": "2 67150  51.8729  54.9797 0005074 124.8823 235.2641 15.35688677  2605"
      },
      "geometry": {
        "type": "Point",
        "coordinates": [
          -118.898264429916,
          -9.876734035494412
        ]
      }
    },
    {
      "type": "Feature",
      "properties": {
        "norad_id": 67151,
        "name": "KUIPER-00246",
        "group": "last-30-days",
        "lat": -19.944554310669346,
        "lon": -110.22801746024949,
        "alt_km": 460.77958996360485,
        "timestamp": "2025-12-27T15:27:09.834724+00:00",
        "meta_object_name": "KUIPER-00246",
        "meta_object_id": "2025-301U",
        "meta_epoch": "2025-12-27T06:45:14.520384",
        "meta_mean_motion": 15.35965612,
        "meta_eccentricity": 0.00040166,
        "meta_inclination": 51.8741,
        "meta_ra_of_asc_node": 54.9629,
        "meta_arg_of_pericenter": 117.6356,
        "meta_mean_anomaly": 242.5038,
        "meta_ephemeris_type": 0,
        "meta_classification_type": "U",
        "meta_norad_cat_id": 67151,
        "meta_element_set_no": 999,
        "meta_rev_at_epoch": 262,
        "meta_bstar": 0.00069800914,
        "meta_mean_motion_dot": 0.00024517,
        "meta_mean_motion_ddot": 0,
        "tle_line1": "1 67151U 25301U   25361.28141806  .00024517  00000+0  69801-3 0  9993",
        "tle_line2": "2 67151  51.8741  54.9629 0004016 117.6356 242.5038 15.35965612  2620"
      },
      "geometry": {
        "type": "Point",
        "coordinates": [
          -110.22801746024949,
          -19.944554310669346
        ]
      }
    },
    {
      "type": "Feature",
      "properties": {
        "norad_id": 67152,
        "name": "KUIPER-00247",
        "group": "last-30-days",
        "lat": 40.553803190313005,
        "lon": -168.86432853499792,
        "alt_km": 451.8282224950617,
        "timestamp": "2025-12-27T15:27:09.834742+00:00",
        "meta_object_name": "KUIPER-00247",
        "meta_object_id": "2025-301V",
        "meta_epoch": "2025-12-27T05:31:58.593792",
        "meta_mean_motion": 15.34049784,
        "meta_eccentricity": 0.00112419,
        "meta_inclination": 51.8632,
        "meta_ra_of_asc_node": 55.372,
        "meta_arg_of_pericenter": 156.7034,
        "meta_mean_anomaly": 203.4463,
        "meta_ephemeris_type": 0,
        "meta_classification_type": "U",
        "meta_norad_cat_id": 67152,
        "meta_element_set_no": 999,
        "meta_rev_at_epoch": 259,
        "meta_bstar": 0.0010043828,
        "meta_mean_motion_dot": 0.00033424,
        "meta_mean_motion_ddot": 0,
        "tle_line1": "1 67152U 25301V   25361.23053928  .00033424  00000+0  10044-2 0  9997",
        "tle_line2": "2 67152  51.8632  55.3720 0011241 156.7034 203.4463 15.34049784  2598"
      },
      "geometry": {
        "type": "Point",
        "coordinates": [
          -168.86432853499792,
          40.553803190313005
        ]
      }
    },
    {
      "type": "Feature",
      "properties": {
        "norad_id": 67153,
        "name": "KUIPER-00248",
        "group": "last-30-days",
        "lat": 21.835853537257233,
        "lon": -145.01935826644308,
        "alt_km": 453.17211801657504,
        "timestamp": "2025-12-27T15:27:09.834754+00:00",
        "meta_object_name": "KUIPER-00248",
        "meta_object_id": "2025-301W",
        "meta_epoch": "2025-12-27T05:25:06.007872",
        "meta_mean_motion": 15.34736995,
        "meta_eccentricity": 0.00087653,
        "meta_inclination": 51.8682,
        "meta_ra_of_asc_node": 55.3422,
        "meta_arg_of_pericenter": 145.2747,
        "meta_mean_anomaly": 214.8812,
        "meta_ephemeris_type": 0,
        "meta_classification_type": "U",
        "meta_norad_cat_id": 67153,
        "meta_element_set_no": 999,
        "meta_rev_at_epoch": 276,
        "meta_bstar": 0.0011390304,
        "meta_mean_motion_dot": 0.00038799,
        "meta_mean_motion_ddot": 0,
        "tle_line1": "1 67153U 25301W   25361.22576398  .00038799  00000+0  11390-2 0  9993",
        "tle_line2": "2 67153  51.8682  55.3422 0008765 145.2747 214.8812 15.34736995  2764"
      },
      "geometry": {
        "type": "Point",
        "coordinates": [
          -145.01935826644308,
          21.835853537257233
        ]
      }
    }
  ]
}